INTELSAT 902 (IS-902)   
1 26900U 01039A   26187.24557654 -.00000272  00000+0  00000+0 0  9992
2 26900   6.1639  71.5498 0004285  32.2428 218.7251  1.00270531 90888
INTELSAT 904 (IS-904)   
1 27380U 02007A   26187.06943389 -.00000214  00000+0  00000+0 0  9991
2 27380   6.9639  68.9566 0005761  19.7279 188.8841  1.00273098 51957
DIRECTV 5 (TEMPO 1)     
1 27426U 02023A   26187.12522780 -.00000045  00000+0  00000+0 0  9997
2 27426   4.9229  75.0767 0003192  30.6193 113.3969  1.00271206 88319
INTELSAT 905 (IS-905)   
1 27438U 02027A   26187.25745567  .00000105  00000+0  00000+0 0  9994
2 27438   6.7982  69.5690 0003808  38.3692 131.7862  1.00271659 51558
GALAXY 3C (G-3C)        
1 27445U 02030A   26187.27078995 -.00000140  00000+0  00000+0 0  9992
2 27445   3.7791  77.7299 0001725  34.1269 175.0602  1.00271453 46680
INTELSAT 906 (IS-906)   
1 27513U 02041A   26187.23095947  .00000025  00000+0  00000+0 0  9993
2 27513   5.8497  72.6870 0004028  14.2547 344.5480  1.00271310 87211
GALAXY 13 (HORIZONS-1)  
1 27954U 03044A   26187.11732288  .00000146  00000+0  00000+0 0  9993
2 27954   1.4672  83.6218 0001734  20.2087  72.4975  1.00273866 46761
INTELSAT 10-02          
1 28358U 04022A   26187.07554935  .00000003  00000+0  00000+0 0  9997
2 28358   0.0421 256.0594 0000446 294.0127 120.1851  1.00272147 80746
DIRECTV 8               
1 28659U 05019A   26187.26597383  .00000016  00000+0  00000+0 0  9997
2 28659   0.0186  48.3689 0003152  69.9947 142.5891  1.00271634 77266
GALAXY 28 (G-28)        
1 28702U 05022A   26187.28422336 -.00000187  00000+0  00000+0 0  9997
2 28702   3.3446  78.7038 0002327  27.0562 253.7292  1.00271594 52163
GALAXY 16 (G-16)        
1 29236U 06023A   26187.25270792 -.00000112  00000+0  00000+0 0  9994
2 29236   0.0296 136.3285 0002566 331.4881 168.3939  1.00270987 73166
DIRECTV 9S              
1 29494U 06043A   26187.26957662 -.00000100  00000+0  00000+0 0  9998
2 29494   2.4668  80.6789 0005207  27.6983 171.7282  1.00271378 51578
GALAXY 17 (G-17)        
1 31307U 07016B   26187.14623197 -.00000193  00000+0  00000+0 0  9997
2 31307   3.0166  79.6666 0003832  26.9630 145.1162  1.00269611 69993
INTELSAT 11 (IS-11)     
1 32253U 07044B   26187.22662611  .00000063  00000+0  00000+0 0  9997
2 32253   3.6117  78.4437 0003738  94.2256 235.1469  0.99049027 68630
HORIZONS-2              
1 32388U 07063B   26187.27494998 -.00000240  00000+0  00000+0 0  9991
2 32388   2.6481  80.3985 0003874  12.2891 216.7585  1.00272769 68007
DIRECTV 11              
1 32729U 08013A   26186.98482442 -.00000112  00000+0  00000+0 0  9992
2 32729   0.0454 209.0021 0000066 283.2329  47.0939  1.00272424 45781
GALAXY 18 (G-18)        
1 32951U 08024A   26187.19392111  .00000040  00000+0  00000+0 0  9997
2 32951   0.0195 288.4790 0003038 189.5380 112.9729  1.00268955 46044
GALAXY 19 (G-19)        
1 33376U 08045A   26187.24874613 -.00000125  00000+0  00000+0 0  9995
2 33376   0.0602 254.6026 0002804 232.4539 149.7161  1.00271852 65094
FM-5                    
1 35493U 09034A   26187.05862483 -.00000186  00000+0  00000+0 0  9994
2 35493   0.0408 265.2721 0001110  79.5378 234.1817  1.00274026 46834
INTELSAT 14 (IS-14)     
1 36097U 09064A   26187.28058333 -.00000259  00000+0  00000+0 0  9995
2 36097   0.0170 343.1424 0002463 125.2508 231.8943  1.00271846 60795
INTELSAT 15 (IS-15)     
1 36106U 09067A   26187.19211271 -.00000171  00000+0  00000+0 0  9994
2 36106   0.0145   8.6487 0002330 100.2564 329.5860  1.00271721 41411
DIRECTV 12              
1 36131U 09075A   26186.98404442 -.00000089  00000+0  00000+0 0  9999
2 36131   0.0348 177.3189 0000247 346.3733  11.8093  1.00271447 46748
INTELSAT 16 (IS-16)     
1 36397U 10006A   26187.27451664 -.00000230  00000+0  00000+0 0  9998
2 36397   0.0190 310.0379 0002521 176.3030 180.5480  1.00271219 59848
XM-5                    
1 37185U 10053A   26187.19548112 -.00000009  00000+0  00000+0 0  9996
2 37185   0.0653 268.1571 0001892 302.8706  28.3326  1.00271026 57674
INTELSAT 17 (IS-17)     
1 37238U 10065B   26187.16002760  .00000013  00000+0  00000+0 0  9993
2 37238   0.0060  62.2679 0002579  47.1362 298.3357  1.00272342 53432
INTELSAT 28 (IS-28)     
1 37392U 11016A   26187.30940786 -.00000211  00000+0  00000+0 0  9997
2 37392   1.8524  82.3968 0003777  27.1827 254.3543  1.00270690 53473
INTELSAT 18 (IS-18)     
1 37834U 11056A   26187.18264771  .00000067  00000+0  00000+0 0  9999
2 37834   0.0145 302.0603 0001893 171.9801  55.8720  1.00271354 54008
INTELSAT 22 (IS-22)     
1 38098U 12011A   26187.16132760  .00000000  00000+0  00000+0 0  9991
2 38098   0.0242  51.3276 0001762  70.0681 292.9173  1.00269112  7372
INTELSAT 19 (IS-19)     
1 38356U 12030A   26187.19629316  .00000000  00000+0  00000+0 0  9990
2 38356   0.0213  17.2788 0003189 102.8866  40.6825  1.00270291 50640
INTELSAT 20 (IS-20)     
1 38740U 12043A   26187.08932942 -.00000009  00000+0  00000+0 0  9991
2 38740   0.0098  48.4272 0001122 131.7061 204.5857  1.00269202 50933
INTELSAT 21 (IS-21)     
1 38749U 12045A   26187.27806999 -.00000270  00000+0  00000+0 0  9995
2 38749   0.0132 307.7593 0001811 176.1491 202.4652  1.00270845 50714
